[{"OBJECT_NAME":"STARLINK-34865","OBJECT_ID":"2025-176C","EPOCH":"2026-03-09T13:11:46.016160","MEAN_MOTION":15.30203241,"ECCENTRICITY":0.00012083,"INCLINATION":53.1603,"RA_OF_ASC_NODE":153.7682,"ARG_OF_PERICENTER":77.3357,"MEAN_ANOMALY":282.7779,"EPHEMERIS_TYPE":0,"CLASSIFICATION_TYPE":"U","NORAD_CAT_ID":65200,"ELEMENT_SET_NO":999,"REV_AT_EPOCH":3309,"BSTAR":0.00095637322,"MEAN_MOTION_DOT":0.00028076,"MEAN_MOTION_DDOT":0},{"OBJECT_NAME":"OKEAN-1","OBJECT_ID":"1988-056A","EPOCH":"2026-03-09T21:19:04.260000","MEAN_MOTION":15.31672069,"ECCENTRICITY":0.00129431,"INCLINATION":82.4671,"RA_OF_ASC_NODE":262.7586,"ARG_OF_PERICENTER":168.0696,"MEAN_ANOMALY":192.0855,"EPHEMERIS_TYPE":0,"CLASSIFICATION_TYPE":"U","NORAD_CAT_ID":19274,"ELEMENT_SET_NO":999,"REV_AT_EPOCH":3511,"BSTAR":0.00038371192,"MEAN_MOTION_DOT":0.00011798,"MEAN_MOTION_DDOT":0}]
